CCSDS_OMM_VERS = 2.0
CREATION_DATE  = 
ORIGINATOR     = 

OBJECT_NAME    = SOYUZ-MS 28
OBJECT_ID      = 2025-275A
CENTER_NAME    = EARTH
REF_FRAME      = TEME
TIME_SYSTEM    = UTC
MEAN_ELEMENT_THEORY = SGP/SGP4

EPOCH          = 2025-12-09T21:31:25.697280
MEAN_MOTION    = 15.49459040
ECCENTRICITY   = .0003347
INCLINATION    = 51.6313
RA_OF_ASC_NODE = 156.5563
ARG_OF_PERICENTER = 226.2924
MEAN_ANOMALY   = 133.7787

EPHEMERIS_TYPE = 0
CLASSIFICATION_TYPE = U
NORAD_CAT_ID   = 66664
ELEMENT_SET_NO = 999
REV_AT_EPOCH   = 200
BSTAR          = .27325E-3
MEAN_MOTION_DOT = .14877E-3
MEAN_MOTION_DDOT = 0

CCSDS_OMM_VERS = 2.0
CREATION_DATE  = 
ORIGINATOR     = 

OBJECT_NAME    = 1998-067XS
OBJECT_ID      = 1998-067XS
CENTER_NAME    = EARTH
REF_FRAME      = TEME
TIME_SYSTEM    = UTC
MEAN_ELEMENT_THEORY = SGP/SGP4

EPOCH          = 2025-12-10T00:31:58.658880
MEAN_MOTION    = 15.50350034
ECCENTRICITY   = .0003912
INCLINATION    = 51.6303
RA_OF_ASC_NODE = 155.8936
ARG_OF_PERICENTER = 190.7132
MEAN_ANOMALY   = 169.3774

EPHEMERIS_TYPE = 0
CLASSIFICATION_TYPE = U
NORAD_CAT_ID   = 66906
ELEMENT_SET_NO = 999
REV_AT_EPOCH   = 119
BSTAR          = .63424E-3
MEAN_MOTION_DOT = .36365E-3
MEAN_MOTION_DDOT = 0

CCSDS_OMM_VERS = 2.0
CREATION_DATE  = 
ORIGINATOR     = 

OBJECT_NAME    = 1998-067XT
OBJECT_ID      = 1998-067XT
CENTER_NAME    = EARTH
REF_FRAME      = TEME
TIME_SYSTEM    = UTC
MEAN_ELEMENT_THEORY = SGP/SGP4

EPOCH          = 2025-12-09T12:07:37.114752
MEAN_MOTION    = 15.50864429
ECCENTRICITY   = .00048036
INCLINATION    = 51.6307
RA_OF_ASC_NODE = 158.4423
ARG_OF_PERICENTER = 208.5081
MEAN_ANOMALY   = 151.5646

EPHEMERIS_TYPE = 0
CLASSIFICATION_TYPE = U
NORAD_CAT_ID   = 66907
ELEMENT_SET_NO = 999
REV_AT_EPOCH   = 111
BSTAR          = .12921241E-2
MEAN_MOTION_DOT = .76342E-3
MEAN_MOTION_DDOT = 0

CCSDS_OMM_VERS = 2.0
CREATION_DATE  = 
ORIGINATOR     = 

OBJECT_NAME    = 1998-067XU
OBJECT_ID      = 1998-067XU
CENTER_NAME    = EARTH
REF_FRAME      = TEME
TIME_SYSTEM    = UTC
MEAN_ELEMENT_THEORY = SGP/SGP4

EPOCH          = 2025-12-09T22:56:49.308000
MEAN_MOTION    = 15.50986187
ECCENTRICITY   = .0004997
INCLINATION    = 51.6304
RA_OF_ASC_NODE = 156.2020
ARG_OF_PERICENTER = 209.1255
MEAN_ANOMALY   = 150.9456

EPHEMERIS_TYPE = 0
CLASSIFICATION_TYPE = U
NORAD_CAT_ID   = 66908
ELEMENT_SET_NO = 999
REV_AT_EPOCH   = 118
BSTAR          = .13761E-2
MEAN_MOTION_DOT = .81745E-3
MEAN_MOTION_DDOT = 0

CCSDS_OMM_VERS = 2.0
CREATION_DATE  = 
ORIGINATOR     = 

OBJECT_NAME    = SILVERSAT
OBJECT_ID      = 1998-067XV
CENTER_NAME    = EARTH
REF_FRAME      = TEME
TIME_SYSTEM    = UTC
MEAN_ELEMENT_THEORY = SGP/SGP4

EPOCH          = 2025-12-09T19:50:59.695584
MEAN_MOTION    = 15.51056405
ECCENTRICITY   = .0004877
INCLINATION    = 51.6304
RA_OF_ASC_NODE = 156.8402
ARG_OF_PERICENTER = 210.6195
MEAN_ANOMALY   = 149.4510

EPHEMERIS_TYPE = 0
CLASSIFICATION_TYPE = U
NORAD_CAT_ID   = 66909
ELEMENT_SET_NO = 999
REV_AT_EPOCH   = 116
BSTAR          = .154E-2
MEAN_MOTION_DOT = .91886E-3
MEAN_MOTION_DDOT = 0

CCSDS_OMM_VERS = 2.0
CREATION_DATE  = 
ORIGINATOR     = 

OBJECT_NAME    = 1998-067XW
OBJECT_ID      = 1998-067XW
CENTER_NAME    = EARTH
REF_FRAME      = TEME
TIME_SYSTEM    = UTC
MEAN_ELEMENT_THEORY = SGP/SGP4

EPOCH          = 2025-12-09T18:16:30.088704
MEAN_MOTION    = 15.51233501
ECCENTRICITY   = .0005725
INCLINATION    = 51.6303
RA_OF_ASC_NODE = 157.1524
ARG_OF_PERICENTER = 193.6821
MEAN_ANOMALY   = 166.4014

EPHEMERIS_TYPE = 0
CLASSIFICATION_TYPE = U
NORAD_CAT_ID   = 66910
ELEMENT_SET_NO = 999
REV_AT_EPOCH   = 115
BSTAR          = .12863E-2
MEAN_MOTION_DOT = .77029E-3
MEAN_MOTION_DDOT = 0

CCSDS_OMM_VERS = 2.0
CREATION_DATE  = 
ORIGINATOR     = 

OBJECT_NAME    = 1998-067XX
OBJECT_ID      = 1998-067XX
CENTER_NAME    = EARTH
REF_FRAME      = TEME
TIME_SYSTEM    = UTC
MEAN_ELEMENT_THEORY = SGP/SGP4

EPOCH          = 2025-12-09T02:48:25.040736
MEAN_MOTION    = 15.51276485
ECCENTRICITY   = .00057034
INCLINATION    = 51.6296
RA_OF_ASC_NODE = 160.3494
ARG_OF_PERICENTER = 191.2268
MEAN_ANOMALY   = 168.8595

EPHEMERIS_TYPE = 0
CLASSIFICATION_TYPE = U
NORAD_CAT_ID   = 66911
ELEMENT_SET_NO = 999
REV_AT_EPOCH   = 104
BSTAR          = .14245982E-2
MEAN_MOTION_DOT = .85582E-3
MEAN_MOTION_DDOT = 0

CCSDS_OMM_VERS = 2.0
CREATION_DATE  = 
ORIGINATOR     = 

OBJECT_NAME    = 1998-067XY
OBJECT_ID      = 1998-067XY
CENTER_NAME    = EARTH
REF_FRAME      = TEME
TIME_SYSTEM    = UTC
MEAN_ELEMENT_THEORY = SGP/SGP4

EPOCH          = 2025-12-08T19:07:24.168000
MEAN_MOTION    = 15.50590071
ECCENTRICITY   = .00050436
INCLINATION    = 51.6301
RA_OF_ASC_NODE = 161.9610
ARG_OF_PERICENTER = 202.8278
MEAN_ANOMALY   = 157.2488

EPHEMERIS_TYPE = 0
CLASSIFICATION_TYPE = U
NORAD_CAT_ID   = 66912
ELEMENT_SET_NO = 999
REV_AT_EPOCH   = 99
BSTAR          = .9627216E-3
MEAN_MOTION_DOT = .56065E-3
MEAN_MOTION_DDOT = 0

